CCSDS_OMM_VERS = 2.0
CREATION_DATE  = 
ORIGINATOR     = 

OBJECT_NAME    = HULIANWANG DIGUI 12H
OBJECT_ID      = 2025-231H
CENTER_NAME    = EARTH
REF_FRAME      = TEME
TIME_SYSTEM    = UTC
MEAN_ELEMENT_THEORY = SGP/SGP4

EPOCH          = 2025-10-27T23:33:21.967200
MEAN_MOTION    = 14.04238652
ECCENTRICITY   = .0007459
INCLINATION    = 50.0067
RA_OF_ASC_NODE = 309.1631
ARG_OF_PERICENTER = 314.7232
MEAN_ANOMALY   = 45.3064

EPHEMERIS_TYPE = 0
CLASSIFICATION_TYPE = U
NORAD_CAT_ID   = 66002
ELEMENT_SET_NO = 999
REV_AT_EPOCH   = 168
BSTAR          = .28198644E-3
MEAN_MOTION_DOT = .299E-5
MEAN_MOTION_DDOT = 0

CCSDS_OMM_VERS = 2.0
CREATION_DATE  = 
ORIGINATOR     = 

OBJECT_NAME    = HULIANWANG DIGUI 12J
OBJECT_ID      = 2025-231J
CENTER_NAME    = EARTH
REF_FRAME      = TEME
TIME_SYSTEM    = UTC
MEAN_ELEMENT_THEORY = SGP/SGP4

EPOCH          = 2025-10-27T23:29:01.125600
MEAN_MOTION    = 14.05796708
ECCENTRICITY   = .00056033
INCLINATION    = 50.0043
RA_OF_ASC_NODE = 309.1429
ARG_OF_PERICENTER = 313.2008
MEAN_ANOMALY   = 46.8428

EPHEMERIS_TYPE = 0
CLASSIFICATION_TYPE = U
NORAD_CAT_ID   = 66003
ELEMENT_SET_NO = 999
REV_AT_EPOCH   = 168
BSTAR          = .17739515E-3
MEAN_MOTION_DOT = .139E-5
MEAN_MOTION_DDOT = 0

CCSDS_OMM_VERS = 2.0
CREATION_DATE  = 
ORIGINATOR     = 

OBJECT_NAME    = CZ-8A R/B
OBJECT_ID      = 2025-231K
CENTER_NAME    = EARTH
REF_FRAME      = TEME
TIME_SYSTEM    = UTC
MEAN_ELEMENT_THEORY = SGP/SGP4

EPOCH          = 2025-10-29T12:38:55.288320
MEAN_MOTION    = 14.30031268
ECCENTRICITY   = .0116698
INCLINATION    = 50.0036
RA_OF_ASC_NODE = 300.5883
ARG_OF_PERICENTER = 131.4675
MEAN_ANOMALY   = 229.6332

EPHEMERIS_TYPE = 0
CLASSIFICATION_TYPE = U
NORAD_CAT_ID   = 66004
ELEMENT_SET_NO = 999
REV_AT_EPOCH   = 193
BSTAR          = .45257E-4
MEAN_MOTION_DOT = -.39E-6
MEAN_MOTION_DDOT = 0

CCSDS_OMM_VERS = 2.0
CREATION_DATE  = 
ORIGINATOR     = 

OBJECT_NAME    = STARLINK-35336
OBJECT_ID      = 2025-232B
CENTER_NAME    = EARTH
REF_FRAME      = TEME
TIME_SYSTEM    = UTC
MEAN_ELEMENT_THEORY = SGP/SGP4

EPOCH          = 2025-10-29T12:00:02.998944
MEAN_MOTION    = 15.74399528
ECCENTRICITY   = .0001106
INCLINATION    = 53.1574
RA_OF_ASC_NODE = 357.3095
ARG_OF_PERICENTER = 58.8433
MEAN_ANOMALY   = 288.4972

EPHEMERIS_TYPE = 0
CLASSIFICATION_TYPE = U
NORAD_CAT_ID   = 66006
ELEMENT_SET_NO = 999
REV_AT_EPOCH   = 244
BSTAR          = -.2543E-2
MEAN_MOTION_DOT = -.360852E-2
MEAN_MOTION_DDOT = 0

CCSDS_OMM_VERS = 2.0
CREATION_DATE  = 
ORIGINATOR     = 

OBJECT_NAME    = STARLINK-35196
OBJECT_ID      = 2025-232C
CENTER_NAME    = EARTH
REF_FRAME      = TEME
TIME_SYSTEM    = UTC
MEAN_ELEMENT_THEORY = SGP/SGP4

EPOCH          = 2025-10-29T12:00:02.998944
MEAN_MOTION    = 15.74350012
ECCENTRICITY   = .0001116
INCLINATION    = 53.1577
RA_OF_ASC_NODE = 357.3060
ARG_OF_PERICENTER = 68.4910
MEAN_ANOMALY   = 280.7915

EPHEMERIS_TYPE = 0
CLASSIFICATION_TYPE = U
NORAD_CAT_ID   = 66007
ELEMENT_SET_NO = 999
REV_AT_EPOCH   = 244
BSTAR          = -.19824E-2
MEAN_MOTION_DOT = -.283383E-2
MEAN_MOTION_DDOT = 0

CCSDS_OMM_VERS = 2.0
CREATION_DATE  = 
ORIGINATOR     = 

OBJECT_NAME    = STARLINK-35236
OBJECT_ID      = 2025-232D
CENTER_NAME    = EARTH
REF_FRAME      = TEME
TIME_SYSTEM    = UTC
MEAN_ELEMENT_THEORY = SGP/SGP4

EPOCH          = 2025-10-29T12:00:02.998944
MEAN_MOTION    = 15.74208299
ECCENTRICITY   = .0000865
INCLINATION    = 53.1572
RA_OF_ASC_NODE = 357.3008
ARG_OF_PERICENTER = 51.3359
MEAN_ANOMALY   = 299.9183

EPHEMERIS_TYPE = 0
CLASSIFICATION_TYPE = U
NORAD_CAT_ID   = 66008
ELEMENT_SET_NO = 999
REV_AT_EPOCH   = 244
BSTAR          = -.11951E-2
MEAN_MOTION_DOT = -.172267E-2
MEAN_MOTION_DDOT = 0

CCSDS_OMM_VERS = 2.0
CREATION_DATE  = 
ORIGINATOR     = 

OBJECT_NAME    = STARLINK-35276
OBJECT_ID      = 2025-232E
CENTER_NAME    = EARTH
REF_FRAME      = TEME
TIME_SYSTEM    = UTC
MEAN_ELEMENT_THEORY = SGP/SGP4

EPOCH          = 2025-10-29T12:00:02.998944
MEAN_MOTION    = 15.74197164
ECCENTRICITY   = .0000985
INCLINATION    = 53.1573
RA_OF_ASC_NODE = 357.2972
ARG_OF_PERICENTER = 71.6214
MEAN_ANOMALY   = 281.5740

EPHEMERIS_TYPE = 0
CLASSIFICATION_TYPE = U
NORAD_CAT_ID   = 66009
ELEMENT_SET_NO = 999
REV_AT_EPOCH   = 243
BSTAR          = -.34472E-3
MEAN_MOTION_DOT = -.50828E-3
MEAN_MOTION_DDOT = 0

CCSDS_OMM_VERS = 2.0
CREATION_DATE  = 
ORIGINATOR     = 

OBJECT_NAME    = STARLINK-35297
OBJECT_ID      = 2025-232F
CENTER_NAME    = EARTH
REF_FRAME      = TEME
TIME_SYSTEM    = UTC
MEAN_ELEMENT_THEORY = SGP/SGP4

EPOCH          = 2025-10-29T12:00:02.998944
MEAN_MOTION    = 15.74102928
ECCENTRICITY   = .0001085
INCLINATION    = 53.1575
RA_OF_ASC_NODE = 357.2931
ARG_OF_PERICENTER = 77.2955
MEAN_ANOMALY   = 277.8730

EPHEMERIS_TYPE = 0
CLASSIFICATION_TYPE = U
NORAD_CAT_ID   = 66010
ELEMENT_SET_NO = 999
REV_AT_EPOCH   = 244
BSTAR          = .51594E-3
MEAN_MOTION_DOT = .75328E-3
MEAN_MOTION_DDOT = 0

CCSDS_OMM_VERS = 2.0
CREATION_DATE  = 
ORIGINATOR     = 

OBJECT_NAME    = STARLINK-35256
OBJECT_ID      = 2025-232G
CENTER_NAME    = EARTH
REF_FRAME      = TEME
TIME_SYSTEM    = UTC
MEAN_ELEMENT_THEORY = SGP/SGP4

EPOCH          = 2025-10-29T12:00:02.998944
MEAN_MOTION    = 15.74113560
ECCENTRICITY   = .0000934
INCLINATION    = 53.1573
RA_OF_ASC_NODE = 357.2771
ARG_OF_PERICENTER = 60.7540
MEAN_ANOMALY   = 302.0467

EPHEMERIS_TYPE = 0
CLASSIFICATION_TYPE = U
NORAD_CAT_ID   = 66011
ELEMENT_SET_NO = 999
REV_AT_EPOCH   = 244
BSTAR          = .74098E-3
MEAN_MOTION_DOT = .108944E-2
MEAN_MOTION_DDOT = 0

CCSDS_OMM_VERS = 2.0
CREATION_DATE  = 
ORIGINATOR     = 

OBJECT_NAME    = STARLINK-35293
OBJECT_ID      = 2025-232H
CENTER_NAME    = EARTH
REF_FRAME      = TEME
TIME_SYSTEM    = UTC
MEAN_ELEMENT_THEORY = SGP/SGP4

EPOCH          = 2025-10-29T12:00:02.998944
MEAN_MOTION    = 15.74157136
ECCENTRICITY   = .0001261
INCLINATION    = 53.1572
RA_OF_ASC_NODE = 357.2888
ARG_OF_PERICENTER = 63.2872
MEAN_ANOMALY   = 293.7601

EPHEMERIS_TYPE = 0
CLASSIFICATION_TYPE = U
NORAD_CAT_ID   = 66012
ELEMENT_SET_NO = 999
REV_AT_EPOCH   = 244
BSTAR          = .12431E-3
MEAN_MOTION_DOT = .17589E-3
MEAN_MOTION_DDOT = 0

CCSDS_OMM_VERS = 2.0
CREATION_DATE  = 
ORIGINATOR     = 

OBJECT_NAME    = STARLINK-35307
OBJECT_ID      = 2025-232J
CENTER_NAME    = EARTH
REF_FRAME      = TEME
TIME_SYSTEM    = UTC
MEAN_ELEMENT_THEORY = SGP/SGP4

EPOCH          = 2025-10-29T12:00:02.998944
MEAN_MOTION    = 15.74166330
ECCENTRICITY   = .0001218
INCLINATION    = 53.1576
RA_OF_ASC_NODE = 357.2852
ARG_OF_PERICENTER = 71.4021
MEAN_ANOMALY   = 287.5653

EPHEMERIS_TYPE = 0
CLASSIFICATION_TYPE = U
NORAD_CAT_ID   = 66013
ELEMENT_SET_NO = 999
REV_AT_EPOCH   = 237
BSTAR          = -.4818E-4
MEAN_MOTION_DOT = -.7672E-4
MEAN_MOTION_DDOT = 0

