HULIANWANG DIGUI 12H    
1 66002U 25231H   25300.98150425  .00000299  00000+0  28199-3 0  9992
2 66002  50.0067 309.1631 0007459 314.7232  45.3064 14.04238652  1686
HULIANWANG DIGUI 12J    
1 66003U 25231J   25300.97848525  .00000139  00000+0  17740-3 0  9990
2 66003  50.0043 309.1429 0005603 313.2008  46.8428 14.05796708  1682
CZ-8A R/B               
1 66004U 25231K   25302.52702880 -.00000039  00000+0  45257-4 0  9992
2 66004  50.0036 300.5883 0116698 131.4675 229.6332 14.30031268  1935
STARLINK-35336          
1 66006U 25232B   25302.50003471 -.00360852  00000+0 -25430-2 0  9995
2 66006  53.1574 357.3095 0001106  58.8433 288.4972 15.74399528  2449
STARLINK-35196          
1 66007U 25232C   25302.50003471 -.00283383  00000+0 -19824-2 0  9999
2 66007  53.1577 357.3060 0001116  68.4910 280.7915 15.74350012  2440
STARLINK-35236          
1 66008U 25232D   25302.50003471 -.00172267  00000+0 -11951-2 0  9991
2 66008  53.1572 357.3008 0000865  51.3359 299.9183 15.74208299  2444
STARLINK-35276          
1 66009U 25232E   25302.50003471 -.00050828  00000+0 -34472-3 0  9994
2 66009  53.1573 357.2972 0000985  71.6214 281.5740 15.74197164  2436
STARLINK-35297          
1 66010U 25232F   25302.50003471  .00075328  00000+0  51594-3 0  9990
2 66010  53.1575 357.2931 0001085  77.2955 277.8730 15.74102928  2443
STARLINK-35256          
1 66011U 25232G   25302.50003471  .00108944  00000+0  74098-3 0  9996
2 66011  53.1573 357.2771 0000934  60.7540 302.0467 15.74113560  2445
STARLINK-35293          
1 66012U 25232H   25302.50003471  .00017589  00000+0  12431-3 0  9994
2 66012  53.1572 357.2888 0001261  63.2872 293.7601 15.74157136  2447
STARLINK-35307          
1 66013U 25232J   25302.50003471 -.00007672  00000+0 -48180-4 0  9990
2 66013  53.1576 357.2852 0001218  71.4021 287.5653 15.74166330  2378
